CROCUBE                 
1 62394U 24247T   26095.01134442  .00039986  00000+0  87808-3 0  9992
2 62394  44.9735 310.3631 0005083 240.7464 119.2917 15.43418094 72028
FORESAIL-1 PRIME        
1 66778U 25276DS  26095.76738998  .00006957  00000+0  34490-3 0  9994
2 66778  97.4230 170.3882 0002680  33.9265 326.2140 15.18047594 19411
KNACKSAT-2              
1 67683U 98067XZ  26095.81892939  .00047225  00000+0  71168-3 0  9996
2 67683  51.6317 296.8195 0010840 286.1763  73.8034 15.54247426  9005
